ONEWEB-0415             
1 51624U 22012C   24265.16609247  .00000655  00000+0  18411-2 0  9991
2 51624  87.8976 162.4583 0002128  73.9421 286.1941 13.10375009127531
ONEWEB-0416             
1 51625U 22012D   24265.17771665  .00000626  00000+0  17562-2 0  9991
2 51625  87.8983 162.4567 0001791  72.3397 287.7925 13.10379327127583
ONEWEB-0422             
1 51626U 22012E   24265.00809456 -.00004373  00000+0 -11310-1 0  9993
2 51626  87.9124 132.1771 0001846 108.4995 251.6337 13.17594075131576
ONEWEB-0423             
1 51627U 22012F   24264.39407772 -.00000209  00000+0 -57057-3 0  9994
2 51627  87.9136 132.3015 0001622  80.0084 280.1231 13.17612901130106
ONEWEB-0425             
1 51628U 22012G   24264.72951717  .00000018  00000+0  15799-4 0  9999
2 51628  87.8978 162.5253 0001561  63.3041 296.8246 13.10369654126234
ONEWEB-0428             
1 51629U 22012H   24265.16775354  .00000725  00000+0  20392-2 0  9998
2 51629  87.8981 162.4558 0001937  81.5513 278.5834 13.10375234127534
ONEWEB-0431             
1 51630U 22012J   24264.67957853 -.00000469  00000+0 -13812-2 0  9997
2 51630  87.8978 162.5430 0002355  85.5800 274.5597 13.10374919126248
ONEWEB-0434             
1 51631U 22012K   24264.73283987  .00001782  00000+0  50686-2 0  9992
2 51631  87.8982 162.5534 0001843  88.4110 271.7228 13.10360915126236
